OBJECT_NAME,OBJECT_ID,EPOCH,MEAN_MOTION,ECCENTRICITY,INCLINATION,RA_OF_ASC_NODE,ARG_OF_PERICENTER,MEAN_ANOMALY,EPHEMERIS_TYPE,CLASSIFICATION_TYPE,NORAD_CAT_ID,ELEMENT_SET_NO,REV_AT_EPOCH,BSTAR,MEAN_MOTION_DOT,MEAN_MOTION_DDOT
KUIPER-00616,2026-151N,2026-07-13T07:04:31.504512,15.38364416,.00037995,51.8766,189.4987,114.1484,245.9900,0,U,69775,999,172,.40725019E-3,.15286E-3,0
KUIPER-00617,2026-151P,2026-07-13T07:09:29.884320,15.37753038,.00039873,51.8789,189.5209,127.8987,232.2361,0,U,69776,999,172,.35204689E-3,.12892E-3,0
KUIPER-00619,2026-151Q,2026-07-13T07:01:50.238048,15.38512638,.00011869,51.8783,189.4817,52.3444,307.7650,0,U,69777,999,172,.35832366E-3,.13464E-3,0
KUIPER-00621,2026-151R,2026-07-13T00:00:02.000160,15.38293884,.00021728,51.8787,190.9223,107.8465,59.9202,0,U,69778,999,245,.65279665E-3,.24713E-3,0
KUIPER-00622,2026-151S,2026-07-13T00:00:02.000160,15.36958169,.00069748,51.8732,191.0279,140.4183,337.1868,0,U,69779,999,231,.66843546E-3,.24242E-3,0
KUIPER-00623,2026-151T,2026-07-13T07:12:37.814688,15.37411167,.0005612,51.8757,189.5370,120.5778,239.5763,0,U,69780,999,172,.41428293E-3,.15077E-3,0
KUIPER-00626,2026-151U,2026-07-13T04:21:00.276480,15.35600525,.00102814,51.8700,190.2321,158.8690,201.2723,0,U,69781,999,170,.48634341E-3,.16768E-3,0
KUIPER-00627,2026-151V,2026-07-13T00:00:02.000160,15.35440922,.00109896,51.8691,191.1265,160.0221,268.3994,0,U,69782,999,130,.76449784E-3,.26484E-3,0
KUIPER-00629,2026-151W,2026-07-13T00:00:02.000160,15.36934697,.00074917,51.8743,191.0326,139.9192,335.2330,0,U,69783,999,200,.65429874E-3,.23704E-3,0
KUIPER-00631,2026-151X,2026-07-13T00:00:02.000160,15.36708422,.00079839,51.8711,191.0504,147.4685,318.8290,0,U,69784,999,130,.66083074E-3,.23771E-3,0
KUIPER-00634,2026-151Y,2026-07-13T07:10:08.880960,15.37713955,.00036439,51.8780,189.5254,130.9891,229.1412,0,U,69785,999,172,.31818841E-3,.11597E-3,0
KUIPER-00639,2026-151Z,2026-07-13T00:00:02.000160,15.35889688,.00098612,51.8687,191.0890,154.1658,292.7466,0,U,69786,999,130,.91123107E-3,.32116E-3,0
KUIPER-00641,2026-151AA,2026-07-13T00:00:02.000160,15.35110191,.00107599,51.8677,191.1293,156.3000,270.4252,0,U,69787,999,231,.68582458E-3,.23455E-3,0
KUIPER-00644,2026-151AB,2026-07-13T00:00:02.000160,15.36527451,.00086587,51.8737,191.0651,150.2064,308.9955,0,U,69788,999,261,.68691882E-3,.24586E-3,0
KUIPER-00646,2026-151AC,2026-07-13T00:00:02.000160,15.35941879,.00097572,51.8701,191.0859,156.2352,292.4103,0,U,69789,999,150,.86467206E-3,.30499E-3,0
KUIPER-00647,2026-151AD,2026-07-13T00:00:02.000160,15.35619369,.00107674,51.8664,191.1174,156.4497,275.8707,0,U,69790,999,245,.71369798E-3,.24834E-3,0
KUIPER-00662,2026-151AE,2026-07-13T05:47:56.658336,15.36583181,.00085316,51.8724,189.8913,147.2284,212.9233,0,U,69791,999,171,-.13764754E-3,-.5387E-4,0
LINK,2026-152A,2026-07-13T03:32:20.918112,15.66608495,.002421,20.5928,343.1559,327.0475,32.8464,0,U,69792,999,153,.11150329E-2,.126814E-2,0
2026-152B,2026-152B,2026-07-13T03:40:54.505632,15.64643561,.00223811,20.5990,343.2282,325.1378,34.7602,0,U,69793,999,153,.35406177E-3,.37363E-3,0
ISS OBJECT YJ,1998-067YJ,2026-07-13T07:25:34.956768,15.49952170,.0007798,51.6302,170.7525,305.0865,54.9392,0,U,69794,999,170,.33284555E-3,.18569E-3,0
ISS OBJECT YK,1998-067YK,2026-07-13T07:21:18.567360,15.50571455,.00068088,51.6301,170.7325,314.2407,45.8022,0,U,69795,999,170,.59999305E-3,.34662E-3,0
ISS OBJECT YL,1998-067YL,2026-07-13T07:22:17.646816,15.50366695,.00088583,51.6300,170.7373,306.5347,53.4825,0,U,69796,999,169,.46323891E-3,.26449E-3,0
ISS OBJECT YM,1998-067YM,2026-07-13T07:22:00.235488,15.50405773,.00096094,51.6301,170.7356,297.6086,62.3927,0,U,69797,999,168,.471277E-3,.26962E-3,0
ISS OBJECT YN,1998-067YN,2026-07-13T07:22:38.897760,15.50233716,.00092329,51.6304,170.7381,308.5792,51.4370,0,U,69798,999,170,.32725074E-3,.18443E-3,0
ISS OBJECT YP,1998-067YP,2026-07-13T07:21:53.507520,15.50404929,.00097743,51.6300,170.7353,297.7177,62.2820,0,U,69799,999,169,.45707022E-3,.26134E-3,0
STARLINK-37520,2026-154A,2026-07-13T06:00:02.999808,15.91138815,.00006129,53.1598,302.8066,81.0400,311.8372,0,U,69819,999,235,-.5471082E-2,-.1767847E-1,.85801032E-3
STARLINK-37553,2026-154B,2026-07-13T06:00:02.999808,15.91258718,.00007477,53.1599,302.7998,75.7772,320.3236,0,U,69820,999,235,-.54613702E-2,-.1775528E-1,.86591084E-3
STARLINK-37561,2026-154C,2026-07-13T06:00:02.999808,15.91385075,.00008481,53.1600,302.7932,75.4755,323.8587,0,U,69821,999,235,-.54875433E-2,-.1795418E-1,.88499503E-3
STARLINK-37521,2026-154D,2026-07-13T06:00:02.999808,15.91510244,.00007641,53.1599,302.7874,73.6197,328.4891,0,U,69822,999,235,-.54004945E-2,-.1778587E-1,.87080435E-3
STARLINK-37628,2026-154E,2026-07-13T06:00:02.999808,15.91645868,.00007115,53.1599,302.7809,76.3902,328.8422,0,U,69823,999,235,-.54448475E-2,-.1805418E-1,.89641314E-3
