KUIPER-00616            
1 69775U 26151N   26194.29480908  .00015286  00000+0  40725-3 0  9993
2 69775  51.8766 189.4987 0003799 114.1484 245.9900 15.38364416  1726
KUIPER-00617            
1 69776U 26151P   26194.29826255  .00012892  00000+0  35205-3 0  9990
2 69776  51.8789 189.5209 0003987 127.8987 232.2361 15.37753038  1729
KUIPER-00619            
1 69777U 26151Q   26194.29294257  .00013464  00000+0  35832-3 0  9994
2 69777  51.8783 189.4817 0001186  52.3444 307.7650 15.38512638  1726
KUIPER-00621            
1 69778U 26151R   26194.00002315  .00024713  00000+0  65280-3 0  9995
2 69778  51.8787 190.9223 0002172 107.8465  59.9202 15.38293884  2453
KUIPER-00622            
1 69779U 26151S   26194.00002315  .00024242  00000+0  66844-3 0  9990
2 69779  51.8732 191.0279 0006974 140.4183 337.1868 15.36958169  2317
KUIPER-00623            
1 69780U 26151T   26194.30043767  .00015077  00000+0  41428-3 0  9998
2 69780  51.8757 189.5370 0005612 120.5778 239.5763 15.37411167  1723
KUIPER-00626            
1 69781U 26151U   26194.18125320  .00016768  00000+0  48634-3 0  9995
2 69781  51.8700 190.2321 0010281 158.8690 201.2723 15.35600525  1708
KUIPER-00627            
1 69782U 26151V   26194.00002315  .00026484  00000+0  76450-3 0  9998
2 69782  51.8691 191.1265 0010989 160.0221 268.3994 15.35440922  1308
KUIPER-00629            
1 69783U 26151W   26194.00002315  .00023704  00000+0  65430-3 0  9997
2 69783  51.8743 191.0326 0007491 139.9192 335.2330 15.36934697  2004
KUIPER-00631            
1 69784U 26151X   26194.00002315  .00023771  00000+0  66083-3 0  9997
2 69784  51.8711 191.0504 0007983 147.4685 318.8290 15.36708422  1304
KUIPER-00634            
1 69785U 26151Y   26194.29871390  .00011597  00000+0  31819-3 0  9998
2 69785  51.8780 189.5254 0003643 130.9891 229.1412 15.37713955  1724
KUIPER-00639            
1 69786U 26151Z   26194.00002315  .00032116  00000+0  91123-3 0  9995
2 69786  51.8687 191.0890 0009861 154.1658 292.7466 15.35889688  1306
KUIPER-00641            
1 69787U 26151AA  26194.00002315  .00023455  00000+0  68582-3 0  9995
2 69787  51.8677 191.1293 0010759 156.3000 270.4252 15.35110191  2311
KUIPER-00644            
1 69788U 26151AB  26194.00002315  .00024586  00000+0  68692-3 0  9994
2 69788  51.8737 191.0651 0008658 150.2064 308.9955 15.36527451  2616
KUIPER-00646            
1 69789U 26151AC  26194.00002315  .00030499  00000+0  86467-3 0  9995
2 69789  51.8701 191.0859 0009757 156.2352 292.4103 15.35941879  1507
KUIPER-00647            
1 69790U 26151AD  26194.00002315  .00024834  00000+0  71370-3 0  9990
2 69790  51.8664 191.1174 0010767 156.4497 275.8707 15.35619369  2459
KUIPER-00662            
1 69791U 26151AE  26194.24162799 -.00005387  00000+0 -13765-3 0  9998
2 69791  51.8724 189.8913 0008531 147.2284 212.9233 15.36583181  1717
LINK                    
1 69792U 26152A   26194.14746433  .00126814  00000+0  11150-2 0  9994
2 69792  20.5928 343.1559 0024210 327.0475  32.8464 15.66608495  1534
2026-152B               
1 69793U 26152B   26194.15340863  .00037363  00000+0  35406-3 0  9994
2 69793  20.5990 343.2282 0022381 325.1378  34.7602 15.64643561  1532
ISS OBJECT YJ           
1 69794U 98067YJ  26194.30943237  .00018569  00000+0  33285-3 0  9990
2 69794  51.6302 170.7525 0007798 305.0865  54.9392 15.49952170  1702
ISS OBJECT YK           
1 69795U 98067YK  26194.30646490  .00034662  00000+0  59999-3 0  9994
2 69795  51.6301 170.7325 0006808 314.2407  45.8022 15.50571455  1709
ISS OBJECT YL           
1 69796U 98067YL  26194.30714869  .00026449  00000+0  46324-3 0  9993
2 69796  51.6300 170.7373 0008858 306.5347  53.4825 15.50366695  1698
ISS OBJECT YM           
1 69797U 98067YM  26194.30694717  .00026962  00000+0  47128-3 0  9996
2 69797  51.6301 170.7356 0009609 297.6086  62.3927 15.50405773  1688
ISS OBJECT YN           
1 69798U 98067YN  26194.30739465  .00018443  00000+0  32725-3 0  9999
2 69798  51.6304 170.7381 0009232 308.5792  51.4370 15.50233716  1708
ISS OBJECT YP           
1 69799U 98067YP  26194.30686930  .00026134  00000+0  45707-3 0  9998
2 69799  51.6300 170.7353 0009774 297.7177  62.2820 15.50404929  1695
STARLINK-37520          
1 69819U 26154A   26194.25003472 -.01767847  85801-3 -54711-2 0  9993
2 69819  53.1598 302.8066 0000612  81.0400 311.8372 15.91138815  2350
STARLINK-37553          
1 69820U 26154B   26194.25003472 -.01775528  86591-3 -54614-2 0  9999
2 69820  53.1599 302.7998 0000747  75.7772 320.3236 15.91258718  2356
STARLINK-37561          
1 69821U 26154C   26194.25003472 -.01795418  88500-3 -54875-2 0  9991
2 69821  53.1600 302.7932 0000848  75.4755 323.8587 15.91385075  2352
STARLINK-37521          
1 69822U 26154D   26194.25003472 -.01778587  87080-3 -54005-2 0  9997
2 69822  53.1599 302.7874 0000764  73.6197 328.4891 15.91510244  2359
STARLINK-37628          
1 69823U 26154E   26194.25003472 -.01805418  89641-3 -54448-2 0  9998
2 69823  53.1599 302.7809 0000711  76.3902 328.8422 15.91645868  2359
